[Satellite]
VERSION=1.1
NAME=SL-16 R/B
NICKNAME=SL-16 R/B
TLE1=1 17590U 87027B   17186.20615997 -.00000117  00000-0 -34727-4 0  9996
TLE2=2 17590  71.0035 112.0335 0007282 274.0785  85.9506 14.16742397566449
